LINGQIAO VIDEO A        
1 40959U 15057B   26160.23416644  .00000964  00000+0  14214-3 0  9993
2 40959  97.6623 155.4287 0015461 298.9615  61.0046 14.77383620574230
LINGQIAO VIDEO B        
1 40960U 15057C   26160.21141314  .00000564  00000+0  85728-4 0  9997
2 40960  97.6590 156.5727 0015588 299.0182  60.9467 14.77488218574275
JILIN-1                 
1 40961U 15057D   26160.16081725  .00000786  00000+0  11514-3 0  9998
2 40961  97.6506 159.9262 0015432 291.8780  68.0790 14.78147131574428
FOX-1A (AO-85)          
1 40967U 15058D   26159.76689639  .00003039  00000+0  27655-3 0  9994
2 40967  64.7758 305.1507 0129970  59.8929 301.4993 14.90929725112311
SINOD-D 1               
1 40968U 15058E   26160.05577030  .00002922  00000+0  24048-3 0  9993
2 40968  64.7760 284.3760 0118585  56.3257 304.9098 14.95852379115446
ELEKTRO-L 2             
1 41105U 15074A   26159.98248360 -.00000102  00000+0  00000+0 0  9993
2 41105   6.6726  70.6232 0000970 284.4222 241.5278  1.00271818 38424
DAMPE                   
1 41173U 15078A   26160.19345602  .00001540  00000+0  54305-4 0  9992
2 41173  97.4563 165.6215 0013732 101.6870 258.5913 15.30765886583320
ORBCOMM FM114           
1 41179U 15081A   26159.96555497  .00000471  00000+0  13581-3 0  9992
2 41179  47.0058  40.8748 0001959 173.2997 186.7915 14.58849213556559
ORBCOMM FM110           
1 41182U 15081D   26159.40617106  .00000743  00000+0  19351-3 0  9994
2 41182  47.0028  42.9609 0002852  26.3800 333.7231 14.58866539556345
ORBCOMM FM112           
1 41184U 15081F   26160.12999248  .00000569  00000+0  15653-3 0  9994
2 41184  47.0001 308.3469 0003239 182.2677 177.8194 14.58892085557773
ORBCOMM FM113           
1 41185U 15081G   26160.10637007  .00000392  00000+0  11906-3 0  9996
2 41185  47.0018 308.8310 0001810 192.4742 167.6099 14.58849888557753
ORBCOMM FM108           
1 41187U 15081J   26159.93185668  .00000511  00000+0  14433-3 0  9999
2 41187  47.0040 221.2288 0002532 186.7177 173.3675 14.58862719558878
ORBCOMM FM117           
1 41188U 15081K   26158.87004529  .00000590  00000+0  16110-3 0  9999
2 41188  47.0005 224.8856 0002980 184.7848 175.3010 14.58857943558766
ORBCOMM FM116           
1 41189U 15081L   26158.71361229  .00000857  00000+0  21737-3 0  9993
2 41189  47.0035 315.4145 0001121   3.5235 356.5659 14.58869594557555
HORYU-4                 
1 41340U 16012D   26158.66010672  .00317249  00000+0  10211-2 0  9994
2 41340  30.9848 148.6331 0002832 206.9121 153.1392 15.89027763569291
ZIYUAN 3-02 (ZY 3-02)   
1 41556U 16033A   26160.23163826  .00004567  00000+0  20628-3 0  9992
2 41556  97.3835 236.1580 0011566 321.5073  38.5336 15.21403764556774
CARTOSAT-2C             
1 41599U 16040A   26160.15689042  .00004056  00000+0  19543-3 0  9998
2 41599  97.4489 220.2447 0009921 156.4346 203.7345 15.19255224552497
LAPAN-A3                
1 41603U 16040E   26160.22815250  .00003000  00000+0  96135-4 0  9995
2 41603  97.1487 156.6357 0011722  51.5802 308.6491 15.33053526553590
GAOFEN-3                
1 41727U 16049A   26160.17487906 -.00000076  00000+0 -99061-5 0  9992
2 41727  98.4016 168.0820 0001238  99.9743 260.1586 14.42214106517490
CAS-2T & KS-1Q          
1 41847U 16066G   26160.20623799  .00001572  00000+0  22785-3 0  9997
2 41847  98.3822 236.0336 0342497 153.6291 208.2796 14.44667476503648
YUNHAI-1 01             
1 41857U 16068A   26160.20483550  .00000380  00000+0  15566-3 0  9994
2 41857  98.5835 171.2863 0006452  62.5254 297.6585 14.32700289500681
RESOURCESAT-2A          
1 41877U 16074A   26160.18799329  .00000293  00000+0  15365-3 0  9994
2 41877  98.7521 233.7574 0003344  98.7034 261.4522 14.21614438493166
TANSAT                  
1 41898U 16081A   26160.22981073  .00000280  00000+0  68796-4 0  9992
2 41898  98.5368 160.2526 0020127 337.7186  22.3137 14.59944359503469
JILIN-1 03              
1 41914U 17002B   26160.17110764  .00011961  00000+0  28818-3 0  9998
2 41914  97.1952 167.3697 0005744 179.7077 180.4175 15.41380490520627
CARTOSAT-2D             
1 41948U 17008A   26160.18910425  .00004205  00000+0  20257-3 0  9996
2 41948  97.4107 219.6442 0003611 267.4204  92.6618 15.19272439516366
